Object = Patroclus
Epoch of osulation = 2011 06 08
Mean anomaly = 325.195313238
Argument of perihelion = 307.8595616
Long. of ascending node = 44.3659375489
Inclination = 22.0526876622
Eccentricity = 0.139950679546
Semimajor axis = 5.2184992728